OBJECT_NAME,OBJECT_ID,EPOCH,MEAN_MOTION,ECCENTRICITY,INCLINATION,RA_OF_ASC_NODE,ARG_OF_PERICENTER,MEAN_ANOMALY,EPHEMERIS_TYPE,CLASSIFICATION_TYPE,NORAD_CAT_ID,ELEMENT_SET_NO,REV_AT_EPOCH,BSTAR,MEAN_MOTION_DOT,MEAN_MOTION_DDOT
CUBEBUG-2 (LO-74),2013-066AA,2026-06-05T19:25:13.636704,14.93668030,.00594347,97.8908,105.7402,65.9901,294.7524,0,U,39440,999,67529,.51354385E-3,.556E-4,0
FUNCUBE-1 (AO-73),2013-066AE,2026-06-05T20:28:32.303424,15.09352794,.0034668,97.8279,128.0639,240.7945,118.9814,0,U,39444,999,67795,.56727E-3,.9118E-4,0
UWE-3,2013-066AG,2026-06-05T20:27:34.729920,14.96934199,.004917,97.8697,112.8515,359.4628,0.6532,0,U,39446,999,67588,.44473E-3,.5174E-4,0
UNISAT-6,2014-033C,2026-06-05T16:52:35.679072,14.88181134,.00464541,97.7873,309.6189,106.0537,254.5803,0,U,40012,999,64445,.43462434E-3,.4032E-4,0
DUCHIFAT-1,2014-033M,2026-06-05T10:29:13.596288,15.62240333,.00047091,98.0469,213.9698,135.9979,224.1653,0,U,40021,999,65391,.10320502E-2,.91631E-3,0
QB50P1,2014-033R,2026-06-05T06:52:12.859680,15.18070423,.0007025,98.0971,166.5996,264.5036,95.5395,0,U,40025,999,65122,.39735E-3,.8026E-4,0
LILACSAT-2,2015-049K,2026-06-06T01:09:29.212992,15.51071560,.0005322,97.4656,193.4688,299.3702,60.7018,0,U,40908,999,59402,.39229E-3,.22779E-3,0
FOX-1A (AO-85),2015-058D,2026-06-05T19:34:20.422560,14.90911959,.01298608,64.7765,314.3220,61.0355,300.3704,0,U,40967,999,11187,.33711858E-3,.3743E-4,0
CAS-2T & KS-1Q,2016-066G,2026-06-05T22:49:14.356704,14.44657072,.034235,98.3822,232.8151,163.4833,197.7849,0,U,41847,999,50317,.27433E-3,.1904E-4,0
RADFXSAT (FOX-1B),2017-073E,2026-06-05T08:48:23.724864,15.12507922,.0151376,97.4713,23.8246,10.1794,350.2442,0,U,43017,999,46360,.4043995E-3,.9261E-4,0
DIWATA-2B,2018-084H,2026-06-06T03:59:19.909824,15.00397165,.0011848,98.1161,352.8967,206.9450,153.1158,0,U,43678,999,41456,.18866E-3,.2308E-4,0
ES'HAIL 2,2018-090A,2026-06-05T23:16:29.374752,1.00273228,.0001948,0.0163,10.0454,98.8981,160.3681,0,U,43700,999,2756,0,.157E-5,0
FOX-1CLIFF (AO-95),2018-099N,2026-06-05T01:58:43.175424,15.26442922,.0009283,97.4389,216.3757,40.1659,320.0264,0,U,43770,999,41137,.4228E-3,.10962E-3,0
ITASAT,2018-099AE,2026-06-05T22:54:39.276864,15.18913401,.0013278,97.4028,208.6916,38.6207,321.5974,0,U,43786,999,41120,.46858E-3,.974E-4,0
JY1SAT (JO-97),2018-099AX,2026-06-05T02:08:09.513600,15.33253592,.0004294,97.4134,218.8851,322.9431,37.1514,0,U,43803,999,41177,.49499E-3,.15845E-3,0
UWE-4,2018-111E,2026-06-05T01:04:33.820032,15.45332944,.00078982,97.5859,83.8833,27.7618,332.4050,0,U,43880,999,40890,.73225046E-3,.34971E-3,0
TIANYAN 01,2019-093C,2026-06-06T03:21:39.494880,14.86499173,.0014749,97.7530,229.6409,119.7827,240.4858,0,U,44881,999,34977,.76672E-4,.626E-5,0
RS-44 & BREEZE-KM R/B,2019-096E,2026-06-05T12:17:59.548992,12.79748592,.02176517,82.5219,347.4646,171.4058,189.0869,0,U,44909,999,30085,-.4546148E-5,.11E-6,0
SALSAT,2020-068K,2026-06-05T12:02:50.089632,15.29623212,.000921,97.8853,158.8572,354.5258,5.5879,0,U,46495,999,31357,.29741857E-3,.8465E-4,0
XW-3 (CAS-9),2021-131B,2026-06-06T03:44:17.690784,14.41347099,.0005141,98.4977,249.6054,122.0019,238.1670,0,U,50466,999,23352,.1724E-3,.514E-5,0
GREENCUBE (IO-117),2022-080E,2026-06-01T11:09:37.753056,6.42583280,.00088692,70.1435,303.7143,293.3663,66.6064,0,U,53109,999,9105,0,-.3E-7,0
UMKA 1 (RS40S),2023-091G,2026-06-05T21:47:39.927264,15.20685607,.0013632,97.5050,215.6495,153.3125,206.8814,0,U,57172,999,16229,.38591E-3,.8433E-4,0
CUBESX-HSE 3 (RS42S),2023-091N,2026-06-05T22:23:02.084928,15.30923343,.0012028,97.5091,222.3799,129.4224,230.8084,0,U,57178,999,16270,.60916E-3,.18186E-3,0
MONITOR-3 (RS58S),2023-091Q,2026-06-05T22:22:50.772576,15.27608657,.0012921,97.5083,220.2977,135.7386,224.4889,0,U,57180,999,16257,.54795E-3,.14764E-3,0
MONITOR-4 (RS57S),2023-091S,2026-06-05T21:53:38.372352,15.27706119,.0012908,97.5077,220.2479,136.1392,224.0874,0,U,57182,999,16257,.52343E-3,.14141E-3,0
MONITOR-2 (RS39S),2023-091U,2026-06-05T21:58:01.652160,15.18803066,.0012203,97.5073,215.2716,145.9449,214.2571,0,U,57184,999,16224,.32018E-3,.6607E-4,0
SVYATOBOR 1 (RS60S),2023-091X,2026-06-05T21:58:41.397024,15.26419946,.0010815,97.5089,220.6719,128.3872,231.8339,0,U,57187,999,16259,.46442E-3,.12046E-3,0
VIZARD-METEO (RS38S),2023-091Z,2026-06-05T22:35:33.288864,15.35659105,.0008753,97.5091,226.2043,110.9917,249.2264,0,U,57189,999,16296,.64883E-3,.2248E-3,0
POLYTECH-UNIVERSE 3 (RS46S),2023-091AB,2026-06-05T22:39:20.092320,15.19004187,.001609,97.5049,214.8048,163.1561,197.0211,0,U,57191,999,16224,.2983E-3,.6195E-4,0
UTMN 2 (RS27S),2023-091AP,2026-06-05T22:57:15.374016,15.31769519,.000946,97.5087,224.0242,117.1138,243.1069,0,U,57203,999,16282,.56736E-3,.17368E-3,0
